CCSDS_OMM_VERS = 2.0
CREATION_DATE  = 
ORIGINATOR     = 

OBJECT_NAME    = H-2A R/B
OBJECT_ID      = 2006-002B
CENTER_NAME    = EARTH
REF_FRAME      = TEME
TIME_SYSTEM    = UTC
MEAN_ELEMENT_THEORY = SGP/SGP4

EPOCH          = 2026-03-08T10:06:50.299200
MEAN_MOTION    = 15.16390570
ECCENTRICITY   = .0051984
INCLINATION    = 98.2409
RA_OF_ASC_NODE = 214.3354
ARG_OF_PERICENTER = 245.4365
MEAN_ANOMALY   = 114.1443

EPHEMERIS_TYPE = 0
CLASSIFICATION_TYPE = U
NORAD_CAT_ID   = 28932
ELEMENT_SET_NO = 999
REV_AT_EPOCH   = 9424
BSTAR          = .83775E-3
MEAN_MOTION_DOT = .16785E-3
MEAN_MOTION_DDOT = 0

CCSDS_OMM_VERS = 2.0
CREATION_DATE  = 
ORIGINATOR     = 

OBJECT_NAME    = RESURS-DK 1
OBJECT_ID      = 2006-021A
CENTER_NAME    = EARTH
REF_FRAME      = TEME
TIME_SYSTEM    = UTC
MEAN_ELEMENT_THEORY = SGP/SGP4

EPOCH          = 2026-03-08T13:02:47.810688
MEAN_MOTION    = 15.12735068
ECCENTRICITY   = .0002016
INCLINATION    = 69.9314
RA_OF_ASC_NODE = 239.9875
ARG_OF_PERICENTER = 163.0570
MEAN_ANOMALY   = 197.0664

EPHEMERIS_TYPE = 0
CLASSIFICATION_TYPE = U
NORAD_CAT_ID   = 29228
ELEMENT_SET_NO = 999
REV_AT_EPOCH   = 8735
BSTAR          = .26607E-3
MEAN_MOTION_DOT = .4568E-4
MEAN_MOTION_DDOT = 0

CCSDS_OMM_VERS = 2.0
CREATION_DATE  = 
ORIGINATOR     = 

OBJECT_NAME    = CZ-4B R/B
OBJECT_ID      = 2006-046C
CENTER_NAME    = EARTH
REF_FRAME      = TEME
TIME_SYSTEM    = UTC
MEAN_ELEMENT_THEORY = SGP/SGP4

EPOCH          = 2026-03-08T02:12:28.483776
MEAN_MOTION    = 15.16885269
ECCENTRICITY   = .0031661
INCLINATION    = 97.5591
RA_OF_ASC_NODE = 112.0047
ARG_OF_PERICENTER = 273.1606
MEAN_ANOMALY   = 86.6004

EPHEMERIS_TYPE = 0
CLASSIFICATION_TYPE = U
NORAD_CAT_ID   = 29507
ELEMENT_SET_NO = 999
REV_AT_EPOCH   = 5980
BSTAR          = .33939E-3
MEAN_MOTION_DOT = .6701E-4
MEAN_MOTION_DDOT = 0

CCSDS_OMM_VERS = 2.0
CREATION_DATE  = 
ORIGINATOR     = 

OBJECT_NAME    = CZ-2C R/B
OBJECT_ID      = 2007-010B
CENTER_NAME    = EARTH
REF_FRAME      = TEME
TIME_SYSTEM    = UTC
MEAN_ELEMENT_THEORY = SGP/SGP4

EPOCH          = 2026-03-08T07:36:19.096416
MEAN_MOTION    = 14.20245714
ECCENTRICITY   = .0057939
INCLINATION    = 98.3979
RA_OF_ASC_NODE = 180.6645
ARG_OF_PERICENTER = 298.6677
MEAN_ANOMALY   = 60.8682

EPHEMERIS_TYPE = 0
CLASSIFICATION_TYPE = U
NORAD_CAT_ID   = 31114
ELEMENT_SET_NO = 999
REV_AT_EPOCH   = 97952
BSTAR          = .10608E-3
MEAN_MOTION_DOT = .189E-5
MEAN_MOTION_DDOT = 0

CCSDS_OMM_VERS = 2.0
CREATION_DATE  = 
ORIGINATOR     = 

OBJECT_NAME    = COSMO-SKYMED 1
OBJECT_ID      = 2007-023A
CENTER_NAME    = EARTH
REF_FRAME      = TEME
TIME_SYSTEM    = UTC
MEAN_ELEMENT_THEORY = SGP/SGP4

EPOCH          = 2026-03-08T12:40:02.828928
MEAN_MOTION    = 14.96525504
ECCENTRICITY   = .0001136
INCLINATION    = 97.8868
RA_OF_ASC_NODE = 258.5502
ARG_OF_PERICENTER = 101.3455
MEAN_ANOMALY   = 258.7894

EPHEMERIS_TYPE = 0
CLASSIFICATION_TYPE = U
NORAD_CAT_ID   = 31598
ELEMENT_SET_NO = 999
REV_AT_EPOCH   = 1473
BSTAR          = .50301E-3
MEAN_MOTION_DOT = .566E-4
MEAN_MOTION_DDOT = 0

CCSDS_OMM_VERS = 2.0
CREATION_DATE  = 
ORIGINATOR     = 

OBJECT_NAME    = COSMOS 2428
OBJECT_ID      = 2007-029A
CENTER_NAME    = EARTH
REF_FRAME      = TEME
TIME_SYSTEM    = UTC
MEAN_ELEMENT_THEORY = SGP/SGP4

EPOCH          = 2026-03-08T13:02:46.231296
MEAN_MOTION    = 14.12945895
ECCENTRICITY   = .0009059
INCLINATION    = 70.9431
RA_OF_ASC_NODE = 205.7484
ARG_OF_PERICENTER = 277.8501
MEAN_ANOMALY   = 82.1591

EPHEMERIS_TYPE = 0
CLASSIFICATION_TYPE = U
NORAD_CAT_ID   = 31792
ELEMENT_SET_NO = 999
REV_AT_EPOCH   = 96393
BSTAR          = .64963E-4
MEAN_MOTION_DOT = .73E-6
MEAN_MOTION_DDOT = 0

CCSDS_OMM_VERS = 2.0
CREATION_DATE  = 
ORIGINATOR     = 

OBJECT_NAME    = SL-16 R/B
OBJECT_ID      = 2007-029B
CENTER_NAME    = EARTH
REF_FRAME      = TEME
TIME_SYSTEM    = UTC
MEAN_ELEMENT_THEORY = SGP/SGP4

EPOCH          = 2026-03-08T13:32:19.682016
MEAN_MOTION    = 14.14833249
ECCENTRICITY   = .0002315
INCLINATION    = 70.9759
RA_OF_ASC_NODE = 174.7506
ARG_OF_PERICENTER = 276.3599
MEAN_ANOMALY   = 95.0936

EPHEMERIS_TYPE = 0
CLASSIFICATION_TYPE = U
NORAD_CAT_ID   = 31793
ELEMENT_SET_NO = 999
REV_AT_EPOCH   = 96521
BSTAR          = .28204E-4
MEAN_MOTION_DOT = .7E-7
MEAN_MOTION_DDOT = 0

CCSDS_OMM_VERS = 2.0
CREATION_DATE  = 
ORIGINATOR     = 

OBJECT_NAME    = KORONAS-FOTON
OBJECT_ID      = 2009-003A
CENTER_NAME    = EARTH
REF_FRAME      = TEME
TIME_SYSTEM    = UTC
MEAN_ELEMENT_THEORY = SGP/SGP4

EPOCH          = 2026-03-08T12:46:37.394400
MEAN_MOTION    = 15.43297157
ECCENTRICITY   = .0011247
INCLINATION    = 82.4274
RA_OF_ASC_NODE = 277.0813
ARG_OF_PERICENTER = 153.2660
MEAN_ANOMALY   = 206.9170

EPHEMERIS_TYPE = 0
CLASSIFICATION_TYPE = U
NORAD_CAT_ID   = 33504
ELEMENT_SET_NO = 999
REV_AT_EPOCH   = 94556
BSTAR          = .3736E-3
MEAN_MOTION_DOT = .16711E-3
MEAN_MOTION_DDOT = 0

CCSDS_OMM_VERS = 2.0
CREATION_DATE  = 
ORIGINATOR     = 

OBJECT_NAME    = CZ-2C R/B
OBJECT_ID      = 2011-030B
CENTER_NAME    = EARTH
REF_FRAME      = TEME
TIME_SYSTEM    = UTC
MEAN_ELEMENT_THEORY = SGP/SGP4

EPOCH          = 2026-03-08T11:21:20.287008
MEAN_MOTION    = 14.81218145
ECCENTRICITY   = .0052521
INCLINATION    = 97.8549
RA_OF_ASC_NODE = 24.7607
ARG_OF_PERICENTER = 356.0450
MEAN_ANOMALY   = 116.4277

EPHEMERIS_TYPE = 0
CLASSIFICATION_TYPE = U
NORAD_CAT_ID   = 37731
ELEMENT_SET_NO = 999
REV_AT_EPOCH   = 78991
BSTAR          = .33376E-3
MEAN_MOTION_DOT = .2606E-4
MEAN_MOTION_DDOT = 0

CCSDS_OMM_VERS = 2.0
CREATION_DATE  = 
ORIGINATOR     = 

OBJECT_NAME    = H-2A R/B
OBJECT_ID      = 2012-025E
CENTER_NAME    = EARTH
REF_FRAME      = TEME
TIME_SYSTEM    = UTC
MEAN_ELEMENT_THEORY = SGP/SGP4

EPOCH          = 2026-03-08T10:58:10.084224
MEAN_MOTION    = 14.95158696
ECCENTRICITY   = .0043411
INCLINATION    = 98.4741
RA_OF_ASC_NODE = 34.4046
ARG_OF_PERICENTER = 318.6146
MEAN_ANOMALY   = 41.1786

EPHEMERIS_TYPE = 0
CLASSIFICATION_TYPE = U
NORAD_CAT_ID   = 38341
ELEMENT_SET_NO = 999
REV_AT_EPOCH   = 74803
BSTAR          = .59743E-3
MEAN_MOTION_DOT = .6616E-4
MEAN_MOTION_DDOT = 0

CCSDS_OMM_VERS = 2.0
CREATION_DATE  = 
ORIGINATOR     = 

OBJECT_NAME    = SHIJIAN-16 (SJ-16)
OBJECT_ID      = 2013-057A
CENTER_NAME    = EARTH
REF_FRAME      = TEME
TIME_SYSTEM    = UTC
MEAN_ELEMENT_THEORY = SGP/SGP4

EPOCH          = 2026-03-08T13:21:14.253408
MEAN_MOTION    = 14.92339983
ECCENTRICITY   = .0015463
INCLINATION    = 74.9735
RA_OF_ASC_NODE = 187.2327
ARG_OF_PERICENTER = 115.7618
MEAN_ANOMALY   = 244.5168

EPHEMERIS_TYPE = 0
CLASSIFICATION_TYPE = U
NORAD_CAT_ID   = 39358
ELEMENT_SET_NO = 999
REV_AT_EPOCH   = 67133
BSTAR          = .32321E-3
MEAN_MOTION_DOT = .3284E-4
MEAN_MOTION_DDOT = 0

CCSDS_OMM_VERS = 2.0
CREATION_DATE  = 
ORIGINATOR     = 

OBJECT_NAME    = SL-4 R/B
OBJECT_ID      = 2014-021B
CENTER_NAME    = EARTH
REF_FRAME      = TEME
TIME_SYSTEM    = UTC
MEAN_ELEMENT_THEORY = SGP/SGP4

EPOCH          = 2026-03-08T11:02:45.182688
MEAN_MOTION    = 15.39134310
ECCENTRICITY   = .0097684
INCLINATION    = 51.6077
RA_OF_ASC_NODE = 343.2763
ARG_OF_PERICENTER = 98.5370
MEAN_ANOMALY   = 262.6698

EPHEMERIS_TYPE = 0
CLASSIFICATION_TYPE = U
NORAD_CAT_ID   = 39679
ELEMENT_SET_NO = 999
REV_AT_EPOCH   = 65608
BSTAR          = .44532E-3
MEAN_MOTION_DOT = .20338E-3
MEAN_MOTION_DDOT = 0

